OBJECT_NAME,OBJECT_ID,EPOCH,MEAN_MOTION,ECCENTRICITY,INCLINATION,RA_OF_ASC_NODE,ARG_OF_PERICENTER,MEAN_ANOMALY,EPHEMERIS_TYPE,CLASSIFICATION_TYPE,NORAD_CAT_ID,ELEMENT_SET_NO,REV_AT_EPOCH,BSTAR,MEAN_MOTION_DOT,MEAN_MOTION_DDOT
STARLINK-30036,2023-067E,2026-06-18T23:49:24.255840,15.27572806,.00016374,43.0033,69.1219,262.1559,97.9107,0,U,56692,999,16994,.38251418E-4,.79E-5,0
STARLINK-30067,2023-067F,2026-06-18T03:34:36.793344,15.27578734,.00013921,43.0009,73.9702,265.0762,94.9931,0,U,56693,999,17094,.26531543E-4,.468E-5,0
STARLINK-30126,2023-067G,2026-06-18T23:36:01.160064,15.27576371,.00014977,43.0027,62.2435,266.8889,93.1792,0,U,56694,999,17115,.1401735E-4,.124E-5,0
STARLINK-30121,2023-067H,2026-06-18T22:30:02.617920,15.27575600,.00012464,43.0015,69.5476,269.4316,90.6393,0,U,56695,999,17106,-.27004506E-4,-.1005E-4,0
STARLINK-30130,2023-067K,2026-06-18T23:29:20.041152,15.27579828,.00015125,43.0013,58.7953,267.4650,92.6029,0,U,56697,999,17093,.56073331E-4,.1281E-4,0
STARLINK-30068,2023-067L,2026-06-18T22:34:03.007776,15.27575152,.00015163,43.0012,48.0798,262.6263,97.4416,0,U,56698,999,17105,.13992072E-4,.123E-5,0
STARLINK-30127,2023-067M,2026-06-18T10:07:53.505120,15.27580250,.0000999,43.0044,72.5759,270.8193,89.2544,0,U,56699,999,17098,.31361E-4,.601E-5,0
STARLINK-30053,2023-067N,2026-06-18T17:44:09.490272,15.27577347,.0000812,43.0033,60.4438,250.8128,109.2636,0,U,56700,999,17115,.1560369E-4,.167E-5,0
STARLINK-30125,2023-067P,2026-06-18T17:40:28.161120,15.27575979,.00016673,43.0041,60.4244,257.8890,102.1775,0,U,56701,999,17115,.60947629E-4,.1415E-4,0
STARLINK-30117,2023-067Q,2026-06-18T10:15:58.970304,15.27568993,.0002045,43.0033,69.1506,268.4836,91.5781,0,U,56702,999,17102,-.3341E-4,-.1181E-4,0
STARLINK-30132,2023-067R,2026-06-18T23:08:16.080000,15.27573234,.00013443,43.0027,62.0955,271.6651,88.4047,0,U,56703,999,17115,.160496E-5,-.218E-5,0
STARLINK-30066,2023-067S,2026-06-18T23:34:52.233600,15.27586274,.00012586,43.0016,58.8117,267.5923,92.4785,0,U,56704,999,17119,-.11983232E-3,-.3559E-4,0
STARLINK-30080,2023-067T,2026-06-18T17:19:25.915872,15.27566718,.00011359,43.0052,52.4789,264.4265,95.6457,0,U,56705,999,17124,.76671335E-4,.1847E-4,0
STARLINK-30079,2023-067U,2026-06-18T09:58:39.664704,15.27554227,.0001155,43.0037,72.5307,276.3887,83.6833,0,U,56706,999,17098,.64776E-4,.1519E-4,0
STARLINK-30070,2023-067V,2026-06-18T17:45:59.799744,15.27576632,.00013685,43.0042,60.4517,270.5225,89.5469,0,U,56707,999,17115,-.30336095E-4,-.1097E-4,0
STARLINK-30071,2023-067W,2026-06-18T10:09:18.679104,15.27578366,.0001571,43.0051,65.7703,265.6315,94.4357,0,U,56708,999,17106,.24733E-4,.418E-5,0
STARLINK-30085,2023-067X,2026-06-18T23:23:46.864608,15.27567240,.00016568,43.0023,58.7669,269.4106,90.6556,0,U,56709,999,17093,-.60037248E-4,-.1913E-4,0
ONEWEB-0561,2023-068A,2026-06-18T18:55:32.536128,13.20773303,.00017003,87.9195,274.1240,91.8722,268.2606,0,U,56710,999,14971,-.58937475E-4,-.11E-6,0
ONEWEB-0668,2023-068B,2026-06-18T20:56:55.555008,13.16594685,.00026189,87.9095,228.4377,97.4517,262.6911,0,U,56711,999,15200,-.11158422E-3,-.3E-6,0
ONEWEB-0676,2023-068C,2026-06-18T21:08:18.785472,13.16593047,.00020128,87.9097,228.4423,88.0923,272.0438,0,U,56712,999,15192,-.16044818E-3,-.48E-6,0
ONEWEB-0677,2023-068D,2026-06-18T18:38:33.843840,13.20769829,.00022446,87.9196,274.1180,91.6634,268.4756,0,U,56713,999,15001,-.40360123E-4,-.3E-7,0
ONEWEB-0678,2023-068E,2026-06-18T18:10:21.821664,13.15545348,.00021382,87.9015,258.8803,98.9803,261.1569,0,U,56714,999,14949,.82534521E-3,.324E-5,0
ONEWEB-0679,2023-068F,2026-06-18T21:58:28.299648,13.16598271,.00024683,87.9091,228.4265,90.1331,270.0082,0,U,56715,999,15195,.90423319E-3,.359E-5,0
ONEWEB-0680,2023-068G,2026-06-18T21:54:08.074944,13.21828311,.00026131,87.9260,243.6279,96.2722,263.8710,0,U,56716,999,15132,.11624095E-3,.61E-6,0
ONEWEB-0681,2023-068H,2026-06-18T21:26:17.009088,13.21827566,.00018967,87.9256,243.6328,70.6384,289.4955,0,U,56717,999,15131,-.30954314E-3,-.115E-5,0
ONEWEB-0682,2023-068J,2026-06-18T18:44:35.887488,13.15548717,.0002489,87.9010,258.8765,97.5996,262.5417,0,U,56718,999,14966,.31422909E-3,.131E-5,0
ONEWEB-0683,2023-068K,2026-06-18T22:57:51.866784,13.15549404,.00022704,87.9013,258.8412,102.0686,258.0698,0,U,56719,999,14965,-.20291916E-3,-.64E-6,0
ONEWEB-0684,2023-068L,2026-06-18T17:40:42.253824,13.15548221,.00016321,87.9007,258.8751,142.2885,217.8360,0,U,56720,999,14945,-.23009364E-3,-.74E-6,0
ONEWEB-0686,2023-068M,2026-06-18T21:01:29.102592,13.16595050,.00022666,87.9086,228.4579,104.8484,255.2898,0,U,56721,999,15193,-.17172454E-3,-.53E-6,0
ONEWEB-0694,2023-068N,2026-06-18T21:10:36.008544,13.16594612,.00025567,87.9107,228.4215,96.9908,263.1514,0,U,56722,999,15199,-.16168963E-3,-.49E-6,0
