STARLINK-30036          
1 56692U 23067E   26169.99264185  .00000790  00000+0  38251-4 0  9992
2 56692  43.0033  69.1219 0001637 262.1559  97.9107 15.27572806169943
STARLINK-30067          
1 56693U 23067F   26169.14903696  .00000468  00000+0  26532-4 0  9998
2 56693  43.0009  73.9702 0001392 265.0762  94.9931 15.27578734170943
STARLINK-30126          
1 56694U 23067G   26169.98334676  .00000124  00000+0  14017-4 0  9991
2 56694  43.0027  62.2435 0001497 266.8889  93.1792 15.27576371171158
STARLINK-30121          
1 56695U 23067H   26169.93753030 -.00001005  00000+0 -27005-4 0  9998
2 56695  43.0015  69.5476 0001246 269.4316  90.6393 15.27575600171060
STARLINK-30130          
1 56697U 23067K   26169.97870418  .00001281  00000+0  56073-4 0  9995
2 56697  43.0013  58.7953 0001512 267.4650  92.6029 15.27579828170934
STARLINK-30068          
1 56698U 23067L   26169.94031259  .00000123  00000+0  13992-4 0  9992
2 56698  43.0012  48.0798 0001516 262.6263  97.4416 15.27575152171057
STARLINK-30127          
1 56699U 23067M   26169.42214705  .00000601  00000+0  31361-4 0  9996
2 56699  43.0044  72.5759 0000999 270.8193  89.2544 15.27580250170986
STARLINK-30053          
1 56700U 23067N   26169.73899873  .00000167  00000+0  15604-4 0  9997
2 56700  43.0033  60.4438 0000812 250.8128 109.2636 15.27577347171155
STARLINK-30125          
1 56701U 23067P   26169.73643705  .00001415  00000+0  60948-4 0  9997
2 56701  43.0041  60.4244 0001667 257.8890 102.1775 15.27575979171157
STARLINK-30117          
1 56702U 23067Q   26169.42776586 -.00001181  00000+0 -33410-4 0  9994
2 56702  43.0033  69.1506 0002045 268.4836  91.5781 15.27568993171027
STARLINK-30132          
1 56703U 23067R   26169.96407500 -.00000218  00000+0  16050-5 0  9992
2 56703  43.0027  62.0955 0001344 271.6651  88.4047 15.27573234171151
STARLINK-30066          
1 56704U 23067S   26169.98254900 -.00003559  00000+0 -11983-3 0  9999
2 56704  43.0016  58.8117 0001258 267.5923  92.4785 15.27586274171199
STARLINK-30080          
1 56705U 23067T   26169.72182773  .00001847  00000+0  76671-4 0  9992
2 56705  43.0052  52.4789 0001135 264.4265  95.6457 15.27566718171242
STARLINK-30079          
1 56706U 23067U   26169.41573686  .00001519  00000+0  64776-4 0  9995
2 56706  43.0037  72.5307 0001155 276.3887  83.6833 15.27554227170986
STARLINK-30070          
1 56707U 23067V   26169.74027546 -.00001097  00000+0 -30336-4 0  9999
2 56707  43.0042  60.4517 0001368 270.5225  89.5469 15.27576632171154
STARLINK-30071          
1 56708U 23067W   26169.42313286  .00000418  00000+0  24733-4 0  9992
2 56708  43.0051  65.7703 0001571 265.6315  94.4357 15.27578366171068
STARLINK-30085          
1 56709U 23067X   26169.97484797 -.00001913  00000+0 -60037-4 0  9999
2 56709  43.0023  58.7669 0001656 269.4106  90.6556 15.27567240170938
ONEWEB-0561             
1 56710U 23068A   26169.78857102 -.00000011  00000+0 -58937-4 0  9999
2 56710  87.9195 274.1240 0001700  91.8722 268.2606 13.20773303149718
ONEWEB-0668             
1 56711U 23068B   26169.87286522 -.00000030  00000+0 -11158-3 0  9996
2 56711  87.9095 228.4377 0002618  97.4517 262.6911 13.16594685152006
ONEWEB-0676             
1 56712U 23068C   26169.88077298 -.00000048  00000+0 -16045-3 0  9995
2 56712  87.9097 228.4423 0002012  88.0923 272.0438 13.16593047151926
ONEWEB-0677             
1 56713U 23068D   26169.77678060 -.00000003  00000+0 -40360-4 0  9997
2 56713  87.9196 274.1180 0002244  91.6634 268.4756 13.20769829150010
ONEWEB-0678             
1 56714U 23068E   26169.75719701  .00000324  00000+0  82535-3 0  9997
2 56714  87.9015 258.8803 0002138  98.9803 261.1569 13.15545348149496
ONEWEB-0679             
1 56715U 23068F   26169.91560532  .00000359  00000+0  90423-3 0  9995
2 56715  87.9091 228.4265 0002468  90.1331 270.0082 13.16598271151959
ONEWEB-0680             
1 56716U 23068G   26169.91259346  .00000061  00000+0  11624-3 0  9990
2 56716  87.9260 243.6279 0002613  96.2722 263.8710 13.21828311151321
ONEWEB-0681             
1 56717U 23068H   26169.89325242 -.00000115  00000+0 -30954-3 0  9996
2 56717  87.9256 243.6328 0001896  70.6384 289.4955 13.21827566151319
ONEWEB-0682             
1 56718U 23068J   26169.78097092  .00000131  00000+0  31423-3 0  9992
2 56718  87.9010 258.8765 0002489  97.5996 262.5417 13.15548717149668
ONEWEB-0683             
1 56719U 23068K   26169.95685031 -.00000064  00000+0 -20292-3 0  9997
2 56719  87.9013 258.8412 0002270 102.0686 258.0698 13.15549404149651
ONEWEB-0684             
1 56720U 23068L   26169.73660016 -.00000074  00000+0 -23009-3 0  9991
2 56720  87.9007 258.8751 0001632 142.2885 217.8360 13.15548221149453
ONEWEB-0686             
1 56721U 23068M   26169.87603128 -.00000053  00000+0 -17172-3 0  9999
2 56721  87.9086 228.4579 0002266 104.8484 255.2898 13.16595050151936
ONEWEB-0694             
1 56722U 23068N   26169.88236121 -.00000049  00000+0 -16169-3 0  9996
2 56722  87.9107 228.4215 0002556  96.9908 263.1514 13.16594612151994
